TIANMU-1 15             
1 58700U 24004A   24113.45729115  .00013418  00000+0  73261-3 0  9993
2 58700  97.4618 295.6274 0009343 239.6338 120.3971 15.14414196 16337
TIANMU-1 16             
1 58701U 24004B   24113.44135761  .00012761  00000+0  69720-3 0  9996
2 58701  97.4548 295.5429 0009058 247.4602 112.5671 15.14405591 16334
TIANMU-1 17             
1 58702U 24004C   24113.42553786  .00012151  00000+0  66463-3 0  9990
2 58702  97.4591 295.6267 0006525 238.9118 121.1474 15.14394470 16326
TIANMU-1 18             
1 58703U 24004D   24113.47635775  .00011473  00000+0  62875-3 0  9994
2 58703  97.4603 295.7332 0006096 228.1665 131.9047 15.14340603 16331
INSAT-3DS               
1 58990U 24033A   24113.34476104 -.00000156  00000+0  00000+0 0  9994
2 58990   0.1485  87.1052 0011655 359.5533 331.3484  1.00272580   400
METEOR-M2 4             
1 59051U 24039A   24113.41575267  .00000223  00000+0  11965-3 0  9997
2 59051  98.5932  76.6969 0005952 291.0370  69.0171 14.22214429  7567
SOYUZ-MS 25             
1 59294U 24055A   24112.49401555  .00034948  00000+0  60493-3 0  9990
2 59294  51.6375 236.5220 0004655  83.3647 276.7872 15.50580662449755
STARLINK-31463          
1 59296U 24056A   24113.50001157  .00019222  00000+0  46649-3 0  9995
2 59296  42.9992 188.2398 0001292 277.6462  23.5473 15.40684330  5806
STARLINK-31487          
1 59297U 24056B   24113.50001157 -.00031211  00000+0 -56020-3 0  9994
2 59297  42.9990 188.1725 0001231 256.3408  72.4491 15.48929887  5894
STARLINK-31386          
1 59298U 24056C   24113.50001157  .00079001  00000+0  14228-2 0  9995
2 59298  42.9991 188.1771 0001255 285.4374  41.4722 15.48857430  5525
STARLINK-31409          
1 59299U 24056D   24113.50001157  .00072787  00000+0  13122-2 0  9992
2 59299  42.9991 188.1674 0001619 295.3454  35.3875 15.48861804  5892
STARLINK-31489          
1 59300U 24056E   24113.50001157 -.00082710  00000+0 -15054-2 0  9990
2 59300  42.9991 188.1623 0001339 286.2390  46.4915 15.48912018  5809
STARLINK-31502          
1 59301U 24056F   24113.50001157  .00004555  00000+0  88414-4 0  9992
2 59301  42.9991 188.1581 0001418 277.6418  56.9249 15.48896428  5527
STARLINK-31447          
1 59302U 24056G   24113.50001157 -.02175529  00000+0 -50811-1 0  9994
2 59302  42.9990 188.1659 0001447 279.3062  51.6871 15.45147000  5793
STARLINK-31504          
1 59303U 24056H   24113.50001157  .00013787  00000+0  25508-3 0  9995
2 59303  42.9990 188.1481 0001248 274.3787  64.0137 15.48891056  5800
STARLINK-31474          
1 59304U 24056J   24113.50001157  .00044336  00000+0  80422-3 0  9996
2 59304  42.9991 188.1431 0001375 285.9449  54.3754 15.48874664  5589
STARLINK-31500          
1 59305U 24056K   24113.50001157 -.00001131  00000+0 -14403-4 0  9992
2 59305  42.9991 188.1380 0002001 282.4594  59.7730 15.48898328  5736
STARLINK-31480          
1 59306U 24056L   24113.50001157 -.00145184  00000+0 -26578-2 0  9994
2 59306  42.9990 188.1335 0000921 264.8161  79.2279 15.49024585  5630
STARLINK-31282          
1 59307U 24056M   24113.50001157  .00023692  00000+0  43335-3 0  9993
2 59307  42.9991 188.1285 0001621 276.3127  69.7328 15.48897772  5807
STARLINK-31485          
1 59308U 24056N   24113.50001157  .00056462  00000+0  10208-2 0  9997
2 59308  42.9991 188.1237 0001599 289.5690  58.4000 15.48878249  5800
STARLINK-31455          
1 59309U 24056P   24113.50001157 -.02177072  00000+0 -47722-1 0  9993
2 59309  42.9991 188.1223 0001569 283.0316  65.3800 15.46970301  5587
STARLINK-31475          
1 59310U 24056Q   24113.50001157 -.02167275  00000+0 -51400-1 0  9997
2 59310  42.9991 188.1307 0002017 281.3328  63.5818 15.44682618  5897
STARLINK-31469          
1 59311U 24056R   24113.41608075  .00373985  00000+0  23233-2 0  9997
2 59311  42.9982 187.4236 0001686  28.9032 331.1930 15.75118573  5841
STARLINK-31445          
1 59312U 24056S   24113.50001157  .00097982  00000+0  17598-2 0  9993
2 59312  42.9991 188.1042 0001812 281.7596  73.8943 15.48842433  5809
STARLINK-31495          
1 59313U 24056T   24113.50001157  .00049936  00000+0  90473-3 0  9994
2 59313  42.9990 188.0995 0001381 279.9084  77.6613 15.48863874  5805
STARLINK-31477          
1 59314U 24056U   24113.50001157 -.00037618  00000+0 -67721-3 0  9991
2 59314  42.9991 188.0947 0001566 290.9553  68.5080 15.48920681  5798
STARLINK-31446          
1 59315U 24056V   24113.50001157  .00060963  00000+0  11010-2 0  9998
2 59315  42.9990 188.0898 0001374 260.7961 100.5789 15.48879748  5800
STARLINK-31479          
1 59316U 24056W   24113.50001157  .00019729  00000+0  36210-3 0  9993
2 59316  42.9991 188.0851 0001341 276.9601  86.3360 15.48895074  5801
STARLINK-31349          
1 59317U 24056X   24113.50001157  .00071077  00000+0  12813-2 0  9990
2 59317  42.9991 188.0802 0001446 273.5223  91.6887 15.48872905  5853
STARLINK-31464          
1 59318U 24056Y   24113.50001157  .00073468  00000+0  13241-2 0  9993
2 59318  42.9990 188.0752 0001783 285.6266  81.5110 15.48865793  5801
STARLINK-31402          
1 59320U 24057A   24113.50001157  .00121870  00000+0  21809-2 0  9997
2 59320  43.0003 150.0051 0000783 309.4766  71.7614 15.48839720  5633
STARLINK-31578          
1 59321U 24057B   24113.38044709 -.00021772  00000+0 -37738-3 0  9995
2 59321  42.9991 150.8794 0001542 260.7675  99.3011 15.49746007  4320
STARLINK-31530          
1 59322U 24057C   24113.50001157 -.01002890  00000+0 -25734-1 0  9992
2 59322  42.9997 150.2366 0001062 261.0919  24.6532 15.41432636  5588
STARLINK-31565          
1 59323U 24057D   24113.37943276  .00000097  00000+0  76315-5 0  9994
2 59323  42.9991 150.8714 0001255 322.6840  37.3933 15.49748079  4323
STARLINK-31570          
1 59324U 24057E   24113.44421866 -.00051563  00000+0 -90520-3 0  9997
2 59324  42.9995 150.4963 0001177 284.0373  76.0356 15.49751145  4333
STARLINK-31611          
1 59325U 24057F   24113.25018845 -.00123007  00000+0 -21973-2 0  9994
2 59325  42.9993 151.6220 0002982 351.8320   8.2491 15.49618766  4306
STARLINK-31632          
1 59326U 24057G   24113.44318411 -.00004680  00000+0 -76276-4 0  9991
2 59326  42.9997 150.4885 0000283 152.0267 208.0608 15.49756584  4332
STARLINK-31599          
1 59327U 24057H   24113.50001157  .00140381  00000+0  33129-2 0  9990
2 59327  42.9996 150.3547 0001630 258.1839 338.2018 15.40640262  5581
STARLINK-31614          
1 59328U 24057J   24113.50001157 -.02117722  00000+0 -52036-1 0  9995
2 59328  42.9997 150.1815 0000740 208.9951  98.8728 15.43573990  5648
STARLINK-31493          
1 59329U 24057K   24113.50001157  .00087903  00000+0  20895-2 0  9998
2 59329  42.9997 150.2943 0001658 338.7867 282.4721 15.40669519  5643
STARLINK-31634          
1 59330U 24057L   24113.44180507  .00125408  00000+0  21684-2 0  9990
2 59330  43.0000 150.4751 0001258 283.8498  76.2221 15.49800584  4334
STARLINK-31633          
1 59331U 24057M   24113.50001157  .00176826  00000+0  30523-2 0  9993
2 59331  42.9999 150.1332 0000799 306.3636  20.8464 15.49638377  5644
STARLINK-31594          
1 59332U 24057N   24113.37666140 -.00000587  00000+0 -43726-5 0  9992
2 59332  43.0004 150.8451 0001131 279.0446  81.0286 15.49790874  4325
STARLINK-31572          
1 59333U 24057P   24113.37597160  .00046874  00000+0  82349-3 0  9997
2 59333  42.9994 150.8406 0001105 248.6846 111.3896 15.49763139  4327
STARLINK-31573          
1 59334U 24057Q   24113.44051287 -.00613294  00000+0 -12221-1 0  9999
2 59334  42.9984 150.4640 0001511  22.2447 337.8478 15.48353515  4331
STARLINK-31588          
1 59335U 24057R   24113.50001157 -.02138488  00000+0 -51577-1 0  9994
2 59335  42.9997 150.1533 0001130 278.7972  40.1137 15.44151189  5585
STARLINK-31596          
1 59336U 24057S   24113.50001157  .00200907  00000+0  47103-2 0  9998
2 59336  42.9996 150.2619 0001829 290.7428 342.9505 15.40577318  5647
STARLINK-31612          
1 59337U 24057T   24113.43974991 -.00040301  00000+0 -70600-3 0  9997
2 59337  43.0005 150.4581 0000767 239.2420 120.8364 15.49719054  4336
STARLINK-31550          
1 59338U 24057U   24113.37460822 -.00010183  00000+0 -17301-3 0  9998
2 59338  42.9995 150.8299 0001235 298.5498  61.5238 15.49758278  4328
STARLINK-31473          
1 59339U 24057V   24113.50001157  .00058441  00000+0  13979-2 0  9999
2 59339  42.9997 150.2017 0001009 326.6130 331.9941 15.40650239  5581
STARLINK-31562          
1 59340U 24057W   24113.40383924  .00002179  00000+0  59445-4 0  9992
2 59340  43.0013 151.0538 0002161 327.3761  32.6961 15.40681813  4329
STARLINK-31600          
1 59341U 24057X   24113.37388705  .00078556  00000+0  13634-2 0  9991
2 59341  42.9999 150.8241 0001591 315.4261  44.6471 15.49910134  4327
STARLINK-31628          
1 59342U 24057Y   24113.37356432  .00003726  00000+0  71185-4 0  9998
2 59342  42.9990 150.8167 0001436 240.9765 119.0951 15.49805191  4321
YUNHAI-3 02             
1 59343U 24058A   24113.40770027  .00000211  00000+0  13607-3 0  9994
2 59343  98.8236 121.0700 0001150  79.4635 280.6666 14.13315618  3745
CZ-6A R/B               
1 59344U 24058B   24113.41084813  .00000459  00000+0  19631-3 0  9994
2 59344  98.8251 121.7317 0077615 284.2351  75.0218 14.28234015  3784
EUTELSAT 36D            
1 59346U 24059A   24092.19782651  .00003675  00000+0  45424-2 0  9994
2 59346  26.8972 350.5938 8209875 177.4328 194.8376  1.21523355    46
FALCON 9 R/B            
1 59347U 24059B   24113.37537788  .00003520  00000+0  41561-2 0  9995
2 59347  26.8298 346.8121 8200425 183.8066 157.7796  1.22341648   275
STARLINK-31605          
1 59348U 24060A   24113.50001157 -.01633509  00000+0 -41887-1 0  9998
2 59348  42.9996 212.5916 0001153 291.6981 151.3700 15.41963440  4673
